<?xml version='1.0' encoding='utf-8'?>
<osm version="0.6" generator="valhalla-browser-fixture-v1"><node id="1" version="1" lat="47.235" lon="9.235" /><node id="2" version="1" lat="47.235" lon="9.24" /><node id="3" version="1" lat="47.235" lon="9.245" /><node id="4" version="1" lat="47.235" lon="9.25" /><node id="5" version="1" lat="47.235" lon="9.255" /><node id="6" version="1" lat="47.235" lon="9.26" /><node id="7" version="1" lat="47.235" lon="9.265" /><node id="8" version="1" lat="47.24" lon="9.235" /><node id="9" version="1" lat="47.24" lon="9.24" /><node id="10" version="1" lat="47.24" lon="9.245" /><node id="11" version="1" lat="47.24" lon="9.25" /><node id="12" version="1" lat="47.24" lon="9.255" /><node id="13" version="1" lat="47.24" lon="9.26" /><node id="14" version="1" lat="47.24" lon="9.265" /><node id="15" version="1" lat="47.245" lon="9.235" /><node id="16" version="1" lat="47.245" lon="9.24" /><node id="17" version="1" lat="47.245" lon="9.245" /><node id="18" version="1" lat="47.245" lon="9.25" /><node id="19" version="1" lat="47.245" lon="9.255" /><node id="20" version="1" lat="47.245" lon="9.26" /><node id="21" version="1" lat="47.245" lon="9.265" /><node id="22" version="1" lat="47.25" lon="9.235" /><node id="23" version="1" lat="47.25" lon="9.24" /><node id="24" version="1" lat="47.25" lon="9.245" /><node id="25" version="1" lat="47.25" lon="9.25" /><node id="26" version="1" lat="47.25" lon="9.255" /><node id="27" version="1" lat="47.25" lon="9.26" /><node id="28" version="1" lat="47.25" lon="9.265" /><node id="29" version="1" lat="47.255" lon="9.235" /><node id="30" version="1" lat="47.255" lon="9.24" /><node id="31" version="1" lat="47.255" lon="9.245" /><node id="32" version="1" lat="47.255" lon="9.25" /><node id="33" version="1" lat="47.255" lon="9.255" /><node id="34" version="1" lat="47.255" lon="9.26" /><node id="35" version="1" lat="47.255" lon="9.265" /><node id="36" version="1" lat="47.26" lon="9.235" /><node id="37" version="1" lat="47.26" lon="9.24" /><node id="38" version="1" lat="47.26" lon="9.245" /><node id="39" version="1" lat="47.26" lon="9.25" /><node id="40" version="1" lat="47.26" lon="9.255" /><node id="41" version="1" lat="47.26" lon="9.26" /><node id="42" version="1" lat="47.26" lon="9.265" /><node id="43" version="1" lat="47.265" lon="9.235" /><node id="44" version="1" lat="47.265" lon="9.24" /><node id="45" version="1" lat="47.265" lon="9.245" /><node id="46" version="1" lat="47.265" lon="9.25" /><node id="47" version="1" lat="47.265" lon="9.255" /><node id="48" version="1" lat="47.265" lon="9.26" /><node id="49" version="1" lat="47.265" lon="9.265" /><node id="100" version="1" lat="47.3" lon="9.3" /><node id="101" version="1" lat="47.3" lon="9.31" /><node id="102" version="1" lat="47.31" lon="9.31" /><node id="110" version="1" lat="47.55" lon="9.55" /><node id="111" version="1" lat="47.55" lon="9.56" /><node id="300" version="1" lat="47.34" lon="9.35" /><node id="301" version="1" lat="47.34" lon="9.352" /><node id="302" version="1" lat="47.34" lon="9.36" /><node id="303" version="1" lat="47.34" lon="9.362" /><node id="304" version="1" lat="47.346000000000004" lon="9.352" /><node id="305" version="1" lat="47.346000000000004" lon="9.36" /><node id="310" version="1" lat="47.355" lon="9.35" /><node id="311" version="1" lat="47.355" lon="9.352" /><node id="312" version="1" lat="47.355" lon="9.36" /><node id="313" version="1" lat="47.355" lon="9.362" /><node id="314" version="1" lat="47.361" lon="9.352" /><node id="315" version="1" lat="47.361" lon="9.36" /><node id="320" version="1" lat="47.37" lon="9.35" /><node id="321" version="1" lat="47.37" lon="9.352" /><node id="322" version="1" lat="47.37" lon="9.36" /><node id="323" version="1" lat="47.37" lon="9.362" /><node id="324" version="1" lat="47.376" lon="9.352" /><node id="325" version="1" lat="47.376" lon="9.36" /><node id="330" version="1" lat="47.385" lon="9.35" /><node id="331" version="1" lat="47.385" lon="9.352" /><node id="332" version="1" lat="47.385" lon="9.36" /><node id="333" version="1" lat="47.385" lon="9.362" /><node id="334" version="1" lat="47.391" lon="9.352" /><node id="335" version="1" lat="47.391" lon="9.36" /><node id="340" version="1" lat="47.4" lon="9.35" /><node id="341" version="1" lat="47.4" lon="9.352" /><node id="342" version="1" lat="47.4" lon="9.36" /><node id="343" version="1" lat="47.4" lon="9.362" /><node id="344" version="1" lat="47.406" lon="9.352" /><node id="345" version="1" lat="47.406" lon="9.36" /><node id="350" version="1" lat="47.415" lon="9.35" /><node id="351" version="1" lat="47.415" lon="9.352" /><node id="352" version="1" lat="47.415" lon="9.36" /><node id="353" version="1" lat="47.415" lon="9.362" /><node id="354" version="1" lat="47.421" lon="9.352" /><node id="355" version="1" lat="47.421" lon="9.36" /><node id="360" version="1" lat="47.43" lon="9.35" /><node id="361" version="1" lat="47.43" lon="9.352" /><node id="362" version="1" lat="47.43" lon="9.36" /><node id="363" version="1" lat="47.43" lon="9.362" /><node id="364" version="1" lat="47.436" lon="9.352" /><node id="365" version="1" lat="47.436" lon="9.36" /><node id="370" version="1" lat="47.445" lon="9.35" /><node id="371" version="1" lat="47.445" lon="9.352" /><node id="372" version="1" lat="47.445" lon="9.36" /><node id="373" version="1" lat="47.445" lon="9.362" /><node id="374" version="1" lat="47.451" lon="9.352" /><node id="375" version="1" lat="47.451" lon="9.36" /><node id="380" version="1" lat="47.46" lon="9.35" /><node id="381" version="1" lat="47.46" lon="9.352" /><node id="382" version="1" lat="47.46" lon="9.36" /><node id="383" version="1" lat="47.46" lon="9.362" /><node id="384" version="1" lat="47.466" lon="9.352" /><node id="385" version="1" lat="47.466" lon="9.36" /><way id="1001" version="1"><nd ref="1" /><nd ref="2" /><tag k="highway" v="residential" /><tag k="name" v="Row 0" /><tag k="maxspeed" v="40" /></way><way id="1002" version="1"><nd ref="2" /><nd ref="3" /><tag k="highway" v="residential" /><tag k="name" v="Row 0" /><tag k="maxspeed" v="40" /></way><way id="1003" version="1"><nd ref="3" /><nd ref="4" /><tag k="highway" v="residential" /><tag k="name" v="Row 0" /><tag k="maxspeed" v="40" /></way><way id="1004" version="1"><nd ref="4" /><nd ref="5" /><tag k="highway" v="residential" /><tag k="name" v="Row 0" /><tag k="maxspeed" v="40" /></way><way id="1005" version="1"><nd ref="5" /><nd ref="6" /><tag k="highway" v="residential" /><tag k="name" v="Row 0" /><tag k="maxspeed" v="40" /></way><way id="1006" version="1"><nd ref="6" /><nd ref="7" /><tag k="highway" v="residential" /><tag k="name" v="Row 0" /><tag k="maxspeed" v="40" /></way><way id="1007" version="1"><nd ref="8" /><nd ref="9" /><tag k="highway" v="residential" /><tag k="name" v="Row 1" /><tag k="maxspeed" v="40" /></way><way id="1008" version="1"><nd ref="9" /><nd ref="10" /><tag k="highway" v="residential" /><tag k="name" v="Row 1" /><tag k="maxspeed" v="40" /></way><way id="1009" version="1"><nd ref="10" /><nd ref="11" /><tag k="highway" v="residential" /><tag k="name" v="Row 1" /><tag k="maxspeed" v="40" /></way><way id="1010" version="1"><nd ref="11" /><nd ref="12" /><tag k="highway" v="residential" /><tag k="name" v="Row 1" /><tag k="maxspeed" v="40" /></way><way id="1011" version="1"><nd ref="12" /><nd ref="13" /><tag k="highway" v="residential" /><tag k="name" v="Row 1" /><tag k="maxspeed" v="40" /></way><way id="1012" version="1"><nd ref="13" /><nd ref="14" /><tag k="highway" v="residential" /><tag k="name" v="Row 1" /><tag k="maxspeed" v="40" /></way><way id="1013" version="1"><nd ref="15" /><nd ref="16" /><tag k="highway" v="residential" /><tag k="name" v="Row 2" /><tag k="maxspeed" v="40" /></way><way id="1014" version="1"><nd ref="16" /><nd ref="17" /><tag k="highway" v="residential" /><tag k="name" v="Row 2" /><tag k="maxspeed" v="40" /></way><way id="1015" version="1"><nd ref="17" /><nd ref="18" /><tag k="highway" v="residential" /><tag k="name" v="Row 2" /><tag k="maxspeed" v="40" /><tag k="oneway" v="yes" /></way><way id="1016" version="1"><nd ref="18" /><nd ref="19" /><tag k="highway" v="residential" /><tag k="name" v="Row 2" /><tag k="maxspeed" v="40" /></way><way id="1017" version="1"><nd ref="19" /><nd ref="20" /><tag k="highway" v="residential" /><tag k="name" v="Row 2" /><tag k="maxspeed" v="40" /></way><way id="1018" version="1"><nd ref="20" /><nd ref="21" /><tag k="highway" v="residential" /><tag k="name" v="Row 2" /><tag k="maxspeed" v="40" /></way><way id="1019" version="1"><nd ref="22" /><nd ref="23" /><tag k="highway" v="primary" /><tag k="name" v="Row 3" /><tag k="maxspeed" v="40" /></way><way id="1020" version="1"><nd ref="23" /><nd ref="24" /><tag k="highway" v="primary" /><tag k="name" v="Row 3" /><tag k="maxspeed" v="40" /></way><way id="1021" version="1"><nd ref="24" /><nd ref="25" /><tag k="highway" v="primary" /><tag k="name" v="Row 3" /><tag k="maxspeed" v="40" /></way><way id="1022" version="1"><nd ref="25" /><nd ref="26" /><tag k="highway" v="primary" /><tag k="name" v="Row 3" /><tag k="maxspeed" v="40" /></way><way id="1023" version="1"><nd ref="26" /><nd ref="27" /><tag k="highway" v="primary" /><tag k="name" v="Row 3" /><tag k="maxspeed" v="40" /></way><way id="1024" version="1"><nd ref="27" /><nd ref="28" /><tag k="highway" v="primary" /><tag k="name" v="Row 3" /><tag k="maxspeed" v="40" /></way><way id="1025" version="1"><nd ref="29" /><nd ref="30" /><tag k="highway" v="residential" /><tag k="name" v="Row 4" /><tag k="maxspeed" v="40" /></way><way id="1026" version="1"><nd ref="30" /><nd ref="31" /><tag k="highway" v="residential" /><tag k="name" v="Row 4" /><tag k="maxspeed" v="40" /></way><way id="1027" version="1"><nd ref="31" /><nd ref="32" /><tag k="highway" v="residential" /><tag k="name" v="Row 4" /><tag k="maxspeed" v="40" /></way><way id="1028" version="1"><nd ref="32" /><nd ref="33" /><tag k="highway" v="residential" /><tag k="name" v="Row 4" /><tag k="maxspeed" v="40" /></way><way id="1029" version="1"><nd ref="33" /><nd ref="34" /><tag k="highway" v="residential" /><tag k="name" v="Row 4" /><tag k="maxspeed" v="40" /></way><way id="1030" version="1"><nd ref="34" /><nd ref="35" /><tag k="highway" v="residential" /><tag k="name" v="Row 4" /><tag k="maxspeed" v="40" /></way><way id="1031" version="1"><nd ref="36" /><nd ref="37" /><tag k="highway" v="residential" /><tag k="name" v="Row 5" /><tag k="maxspeed" v="40" /></way><way id="1032" version="1"><nd ref="37" /><nd ref="38" /><tag k="highway" v="residential" /><tag k="name" v="Row 5" /><tag k="maxspeed" v="40" /></way><way id="1033" version="1"><nd ref="38" /><nd ref="39" /><tag k="highway" v="residential" /><tag k="name" v="Row 5" /><tag k="maxspeed" v="40" /></way><way id="1034" version="1"><nd ref="39" /><nd ref="40" /><tag k="highway" v="residential" /><tag k="name" v="Row 5" /><tag k="maxspeed" v="40" /></way><way id="1035" version="1"><nd ref="40" /><nd ref="41" /><tag k="highway" v="residential" /><tag k="name" v="Row 5" /><tag k="maxspeed" v="40" /></way><way id="1036" version="1"><nd ref="41" /><nd ref="42" /><tag k="highway" v="residential" /><tag k="name" v="Row 5" /><tag k="maxspeed" v="40" /></way><way id="1037" version="1"><nd ref="43" /><nd ref="44" /><tag k="highway" v="residential" /><tag k="name" v="Row 6" /><tag k="maxspeed" v="40" /></way><way id="1038" version="1"><nd ref="44" /><nd ref="45" /><tag k="highway" v="residential" /><tag k="name" v="Row 6" /><tag k="maxspeed" v="40" /></way><way id="1039" version="1"><nd ref="45" /><nd ref="46" /><tag k="highway" v="residential" /><tag k="name" v="Row 6" /><tag k="maxspeed" v="40" /></way><way id="1040" version="1"><nd ref="46" /><nd ref="47" /><tag k="highway" v="residential" /><tag k="name" v="Row 6" /><tag k="maxspeed" v="40" /></way><way id="1041" version="1"><nd ref="47" /><nd ref="48" /><tag k="highway" v="residential" /><tag k="name" v="Row 6" /><tag k="maxspeed" v="40" /></way><way id="1042" version="1"><nd ref="48" /><nd ref="49" /><tag k="highway" v="residential" /><tag k="name" v="Row 6" /><tag k="maxspeed" v="40" /></way><way id="1043" version="1"><nd ref="1" /><nd ref="8" /><tag k="highway" v="residential" /><tag k="name" v="Column 0" /><tag k="maxspeed" v="40" /></way><way id="1044" version="1"><nd ref="8" /><nd ref="15" /><tag k="highway" v="residential" /><tag k="name" v="Column 0" /><tag k="maxspeed" v="40" /></way><way id="1045" version="1"><nd ref="15" /><nd ref="22" /><tag k="highway" v="residential" /><tag k="name" v="Column 0" /><tag k="maxspeed" v="40" /></way><way id="1046" version="1"><nd ref="22" /><nd ref="29" /><tag k="highway" v="residential" /><tag k="name" v="Column 0" /><tag k="maxspeed" v="40" /></way><way id="1047" version="1"><nd ref="29" /><nd ref="36" /><tag k="highway" v="residential" /><tag k="name" v="Column 0" /><tag k="maxspeed" v="40" /></way><way id="1048" version="1"><nd ref="36" /><nd ref="43" /><tag k="highway" v="residential" /><tag k="name" v="Column 0" /><tag k="maxspeed" v="40" /></way><way id="1049" version="1"><nd ref="2" /><nd ref="9" /><tag k="highway" v="residential" /><tag k="name" v="Column 1" /><tag k="maxspeed" v="40" /></way><way id="1050" version="1"><nd ref="9" /><nd ref="16" /><tag k="highway" v="residential" /><tag k="name" v="Column 1" /><tag k="maxspeed" v="40" /></way><way id="1051" version="1"><nd ref="16" /><nd ref="23" /><tag k="highway" v="residential" /><tag k="name" v="Column 1" /><tag k="maxspeed" v="40" /></way><way id="1052" version="1"><nd ref="23" /><nd ref="30" /><tag k="highway" v="residential" /><tag k="name" v="Column 1" /><tag k="maxspeed" v="40" /></way><way id="1053" version="1"><nd ref="30" /><nd ref="37" /><tag k="highway" v="residential" /><tag k="name" v="Column 1" /><tag k="maxspeed" v="40" /></way><way id="1054" version="1"><nd ref="37" /><nd ref="44" /><tag k="highway" v="residential" /><tag k="name" v="Column 1" /><tag k="maxspeed" v="40" /></way><way id="1055" version="1"><nd ref="3" /><nd ref="10" /><tag k="highway" v="residential" /><tag k="name" v="Column 2" /><tag k="maxspeed" v="40" /></way><way id="1056" version="1"><nd ref="10" /><nd ref="17" /><tag k="highway" v="residential" /><tag k="name" v="Column 2" /><tag k="maxspeed" v="40" /></way><way id="1057" version="1"><nd ref="17" /><nd ref="24" /><tag k="highway" v="residential" /><tag k="name" v="Column 2" /><tag k="maxspeed" v="40" /></way><way id="1058" version="1"><nd ref="24" /><nd ref="31" /><tag k="highway" v="residential" /><tag k="name" v="Column 2" /><tag k="maxspeed" v="40" /></way><way id="1059" version="1"><nd ref="31" /><nd ref="38" /><tag k="highway" v="residential" /><tag k="name" v="Column 2" /><tag k="maxspeed" v="40" /></way><way id="1060" version="1"><nd ref="38" /><nd ref="45" /><tag k="highway" v="residential" /><tag k="name" v="Column 2" /><tag k="maxspeed" v="40" /></way><way id="1061" version="1"><nd ref="4" /><nd ref="11" /><tag k="highway" v="secondary" /><tag k="name" v="Column 3" /><tag k="maxspeed" v="40" /></way><way id="1062" version="1"><nd ref="11" /><nd ref="18" /><tag k="highway" v="secondary" /><tag k="name" v="Column 3" /><tag k="maxspeed" v="40" /></way><way id="1063" version="1"><nd ref="18" /><nd ref="25" /><tag k="highway" v="secondary" /><tag k="name" v="Column 3" /><tag k="maxspeed" v="40" /></way><way id="1064" version="1"><nd ref="25" /><nd ref="32" /><tag k="highway" v="secondary" /><tag k="name" v="Column 3" /><tag k="maxspeed" v="40" /></way><way id="1065" version="1"><nd ref="32" /><nd ref="39" /><tag k="highway" v="secondary" /><tag k="name" v="Column 3" /><tag k="maxspeed" v="40" /></way><way id="1066" version="1"><nd ref="39" /><nd ref="46" /><tag k="highway" v="secondary" /><tag k="name" v="Column 3" /><tag k="maxspeed" v="40" /></way><way id="1067" version="1"><nd ref="5" /><nd ref="12" /><tag k="highway" v="residential" /><tag k="name" v="Column 4" /><tag k="maxspeed" v="40" /></way><way id="1068" version="1"><nd ref="12" /><nd ref="19" /><tag k="highway" v="residential" /><tag k="name" v="Column 4" /><tag k="maxspeed" v="40" /></way><way id="1069" version="1"><nd ref="19" /><nd ref="26" /><tag k="highway" v="residential" /><tag k="name" v="Column 4" /><tag k="maxspeed" v="40" /></way><way id="1070" version="1"><nd ref="26" /><nd ref="33" /><tag k="highway" v="residential" /><tag k="name" v="Column 4" /><tag k="maxspeed" v="40" /></way><way id="1071" version="1"><nd ref="33" /><nd ref="40" /><tag k="highway" v="residential" /><tag k="name" v="Column 4" /><tag k="maxspeed" v="40" /></way><way id="1072" version="1"><nd ref="40" /><nd ref="47" /><tag k="highway" v="residential" /><tag k="name" v="Column 4" /><tag k="maxspeed" v="40" /></way><way id="1073" version="1"><nd ref="6" /><nd ref="13" /><tag k="highway" v="residential" /><tag k="name" v="Column 5" /><tag k="maxspeed" v="40" /></way><way id="1074" version="1"><nd ref="13" /><nd ref="20" /><tag k="highway" v="residential" /><tag k="name" v="Column 5" /><tag k="maxspeed" v="40" /></way><way id="1075" version="1"><nd ref="20" /><nd ref="27" /><tag k="highway" v="residential" /><tag k="name" v="Column 5" /><tag k="maxspeed" v="40" /></way><way id="1076" version="1"><nd ref="27" /><nd ref="34" /><tag k="highway" v="residential" /><tag k="name" v="Column 5" /><tag k="maxspeed" v="40" /></way><way id="1077" version="1"><nd ref="34" /><nd ref="41" /><tag k="highway" v="residential" /><tag k="name" v="Column 5" /><tag k="maxspeed" v="40" /></way><way id="1078" version="1"><nd ref="41" /><nd ref="48" /><tag k="highway" v="residential" /><tag k="name" v="Column 5" /><tag k="maxspeed" v="40" /></way><way id="1079" version="1"><nd ref="7" /><nd ref="14" /><tag k="highway" v="residential" /><tag k="name" v="Column 6" /><tag k="maxspeed" v="40" /></way><way id="1080" version="1"><nd ref="14" /><nd ref="21" /><tag k="highway" v="residential" /><tag k="name" v="Column 6" /><tag k="maxspeed" v="40" /></way><way id="1081" version="1"><nd ref="21" /><nd ref="28" /><tag k="highway" v="residential" /><tag k="name" v="Column 6" /><tag k="maxspeed" v="40" /></way><way id="1082" version="1"><nd ref="28" /><nd ref="35" /><tag k="highway" v="residential" /><tag k="name" v="Column 6" /><tag k="maxspeed" v="40" /></way><way id="1083" version="1"><nd ref="35" /><nd ref="42" /><tag k="highway" v="residential" /><tag k="name" v="Column 6" /><tag k="maxspeed" v="40" /></way><way id="1084" version="1"><nd ref="42" /><nd ref="49" /><tag k="highway" v="residential" /><tag k="name" v="Column 6" /><tag k="maxspeed" v="40" /></way><way id="1085" version="1"><nd ref="100" /><nd ref="101" /><nd ref="102" /><tag k="highway" v="residential" /><tag k="name" v="Disconnected road" /><tag k="maxspeed" v="40" /></way><way id="1086" version="1"><nd ref="110" /><nd ref="111" /><tag k="highway" v="residential" /><tag k="name" v="Unused distant road" /><tag k="maxspeed" v="40" /></way><way id="1087" version="1"><nd ref="300" /><nd ref="301" /><tag k="highway" v="residential" /><tag k="name" v="cycle-shortcut west approach" /><tag k="maxspeed" v="40" /></way><way id="1088" version="1"><nd ref="302" /><nd ref="303" /><tag k="highway" v="residential" /><tag k="name" v="cycle-shortcut east approach" /><tag k="maxspeed" v="40" /></way><way id="1089" version="1"><nd ref="301" /><nd ref="302" /><tag k="highway" v="cycleway" /><tag k="name" v="cycle-shortcut shortcut" /><tag k="maxspeed" v="40" /><tag k="foot" v="no" /><tag k="bicycle" v="yes" /></way><way id="1090" version="1"><nd ref="301" /><nd ref="304" /><nd ref="305" /><nd ref="302" /><tag k="highway" v="residential" /><tag k="name" v="cycle-shortcut detour" /><tag k="maxspeed" v="40" /></way><way id="1091" version="1"><nd ref="310" /><nd ref="311" /><tag k="highway" v="residential" /><tag k="name" v="walk-shortcut west approach" /><tag k="maxspeed" v="40" /></way><way id="1092" version="1"><nd ref="312" /><nd ref="313" /><tag k="highway" v="residential" /><tag k="name" v="walk-shortcut east approach" /><tag k="maxspeed" v="40" /></way><way id="1093" version="1"><nd ref="311" /><nd ref="312" /><tag k="highway" v="footway" /><tag k="name" v="walk-shortcut shortcut" /><tag k="maxspeed" v="40" /><tag k="bicycle" v="no" /><tag k="foot" v="yes" /></way><way id="1094" version="1"><nd ref="311" /><nd ref="314" /><nd ref="315" /><nd ref="312" /><tag k="highway" v="residential" /><tag k="name" v="walk-shortcut detour" /><tag k="maxspeed" v="40" /></way><way id="1095" version="1"><nd ref="320" /><nd ref="321" /><tag k="highway" v="residential" /><tag k="name" v="cycle-contraflow west approach" /><tag k="maxspeed" v="40" /></way><way id="1096" version="1"><nd ref="322" /><nd ref="323" /><tag k="highway" v="residential" /><tag k="name" v="cycle-contraflow east approach" /><tag k="maxspeed" v="40" /></way><way id="1097" version="1"><nd ref="321" /><nd ref="322" /><tag k="highway" v="residential" /><tag k="name" v="cycle-contraflow shortcut" /><tag k="maxspeed" v="40" /><tag k="oneway" v="yes" /><tag k="oneway:bicycle" v="no" /></way><way id="1098" version="1"><nd ref="321" /><nd ref="324" /><nd ref="325" /><nd ref="322" /><tag k="highway" v="residential" /><tag k="name" v="cycle-contraflow detour" /><tag k="maxspeed" v="40" /></way><way id="1099" version="1"><nd ref="330" /><nd ref="331" /><tag k="highway" v="residential" /><tag k="name" v="truck-height west approach" /><tag k="maxspeed" v="40" /></way><way id="1100" version="1"><nd ref="332" /><nd ref="333" /><tag k="highway" v="residential" /><tag k="name" v="truck-height east approach" /><tag k="maxspeed" v="40" /></way><way id="1101" version="1"><nd ref="331" /><nd ref="332" /><tag k="highway" v="residential" /><tag k="name" v="truck-height shortcut" /><tag k="maxspeed" v="40" /><tag k="maxheight" v="3.5" /></way><way id="1102" version="1"><nd ref="331" /><nd ref="334" /><nd ref="335" /><nd ref="332" /><tag k="highway" v="residential" /><tag k="name" v="truck-height detour" /><tag k="maxspeed" v="40" /></way><way id="1103" version="1"><nd ref="340" /><nd ref="341" /><tag k="highway" v="residential" /><tag k="name" v="truck-width west approach" /><tag k="maxspeed" v="40" /></way><way id="1104" version="1"><nd ref="342" /><nd ref="343" /><tag k="highway" v="residential" /><tag k="name" v="truck-width east approach" /><tag k="maxspeed" v="40" /></way><way id="1105" version="1"><nd ref="341" /><nd ref="342" /><tag k="highway" v="residential" /><tag k="name" v="truck-width shortcut" /><tag k="maxspeed" v="40" /><tag k="maxwidth" v="2.4" /></way><way id="1106" version="1"><nd ref="341" /><nd ref="344" /><nd ref="345" /><nd ref="342" /><tag k="highway" v="residential" /><tag k="name" v="truck-width detour" /><tag k="maxspeed" v="40" /></way><way id="1107" version="1"><nd ref="350" /><nd ref="351" /><tag k="highway" v="residential" /><tag k="name" v="truck-length west approach" /><tag k="maxspeed" v="40" /></way><way id="1108" version="1"><nd ref="352" /><nd ref="353" /><tag k="highway" v="residential" /><tag k="name" v="truck-length east approach" /><tag k="maxspeed" v="40" /></way><way id="1109" version="1"><nd ref="351" /><nd ref="352" /><tag k="highway" v="residential" /><tag k="name" v="truck-length shortcut" /><tag k="maxspeed" v="40" /><tag k="maxlength" v="10" /></way><way id="1110" version="1"><nd ref="351" /><nd ref="354" /><nd ref="355" /><nd ref="352" /><tag k="highway" v="residential" /><tag k="name" v="truck-length detour" /><tag k="maxspeed" v="40" /></way><way id="1111" version="1"><nd ref="360" /><nd ref="361" /><tag k="highway" v="residential" /><tag k="name" v="truck-weight west approach" /><tag k="maxspeed" v="40" /></way><way id="1112" version="1"><nd ref="362" /><nd ref="363" /><tag k="highway" v="residential" /><tag k="name" v="truck-weight east approach" /><tag k="maxspeed" v="40" /></way><way id="1113" version="1"><nd ref="361" /><nd ref="362" /><tag k="highway" v="residential" /><tag k="name" v="truck-weight shortcut" /><tag k="maxspeed" v="40" /><tag k="maxweight" v="10" /></way><way id="1114" version="1"><nd ref="361" /><nd ref="364" /><nd ref="365" /><nd ref="362" /><tag k="highway" v="residential" /><tag k="name" v="truck-weight detour" /><tag k="maxspeed" v="40" /></way><way id="1115" version="1"><nd ref="370" /><nd ref="371" /><tag k="highway" v="residential" /><tag k="name" v="truck-axle_load west approach" /><tag k="maxspeed" v="40" /></way><way id="1116" version="1"><nd ref="372" /><nd ref="373" /><tag k="highway" v="residential" /><tag k="name" v="truck-axle_load east approach" /><tag k="maxspeed" v="40" /></way><way id="1117" version="1"><nd ref="371" /><nd ref="372" /><tag k="highway" v="residential" /><tag k="name" v="truck-axle_load shortcut" /><tag k="maxspeed" v="40" /><tag k="maxaxleload" v="5" /></way><way id="1118" version="1"><nd ref="371" /><nd ref="374" /><nd ref="375" /><nd ref="372" /><tag k="highway" v="residential" /><tag k="name" v="truck-axle_load detour" /><tag k="maxspeed" v="40" /></way><way id="1119" version="1"><nd ref="380" /><nd ref="381" /><tag k="highway" v="residential" /><tag k="name" v="truck-hazmat west approach" /><tag k="maxspeed" v="40" /></way><way id="1120" version="1"><nd ref="382" /><nd ref="383" /><tag k="highway" v="residential" /><tag k="name" v="truck-hazmat east approach" /><tag k="maxspeed" v="40" /></way><way id="1121" version="1"><nd ref="381" /><nd ref="382" /><tag k="highway" v="residential" /><tag k="name" v="truck-hazmat shortcut" /><tag k="maxspeed" v="40" /><tag k="hazmat" v="no" /></way><way id="1122" version="1"><nd ref="381" /><nd ref="384" /><nd ref="385" /><nd ref="382" /><tag k="highway" v="residential" /><tag k="name" v="truck-hazmat detour" /><tag k="maxspeed" v="40" /></way><relation id="2000" version="1"><member type="way" ref="1021" role="from" /><member type="node" ref="25" role="via" /><member type="way" ref="1064" role="to" /><tag k="type" v="restriction" /><tag k="restriction" v="no_left_turn" /></relation></osm>